[
   {
      "satellite_name": "GAOFEN-3",
      "tle_1": "1 41727U 16049A   24109.90799973  .00000326  00000+0  11204-3 0  9991",
      "tle_2": "2 41727  98.4069 118.4466 0001480  85.7722 274.3637 14.42211524404885"
   },
   {
      "satellite_name": "GAOFEN-3 DEB",
      "tle_1": "1 42678U 16049C   24108.82372282  .00000704  00000+0  21000-3 0  9992",
      "tle_2": "2 42678  98.3391 122.9706 0007598 229.6730 130.3799 14.45965096399661"
   },
   {
      "satellite_name": "GAOFEN-3 DEB",
      "tle_1": "1 42679U 16049D   24108.87594381  .00000708  00000+0  21146-3 0  9999",
      "tle_2": "2 42679  98.3410 122.8745 0005679 231.3507 128.7177 14.45864412405597"
   },
   {
      "satellite_name": "GAOFEN-3 DEB",
      "tle_1": "1 42680U 16049E   24109.47134105  .00006235  00000+0  17540-2 0  9995",
      "tle_2": "2 42680  98.4372 113.7174 0017391   4.7231 355.4122 14.46113603401935"
   },
   {
      "satellite_name": "GAOFEN-3 02",
      "tle_1": "1 49495U 21109A   24109.87367720  .00000312  00000+0  10775-3 0  9998",
      "tle_2": "2 49495  98.4144 118.0056 0001638 154.4080 205.7191 14.42325060126544"
   },
   {
      "satellite_name": "GAOFEN-3 03",
      "tle_1": "1 52200U 22035A   24109.91585830  .00000308  00000+0  10681-3 0  9995",
      "tle_2": "2 52200  98.4139 118.6723 0001592  75.2624 284.8742 14.42214291107087"
   },
   {
      "satellite_name": "GAOFEN-4",
      "tle_1": "1 41194U 15083A   24109.91319631 -.00000339  00000+0  00000+0 0  9999",
      "tle_2": "2 41194   0.0699  75.0492 0002337  91.4346 115.4405  1.00275313 30616"
   },
   {
      "satellite_name": "SPOT 6",
      "tle_1": "1 38755U 12047A   24109.86708055  .00000003  00000+0  10493-4 0  9990",
      "tle_2": "2 38755  98.2261 177.1228 0001117  88.2380 271.8947 14.58520719617997"
   },
   {
      "satellite_name": "TERRASAR-X",
      "tle_1": "1 31698U 07026A   24109.49700168  .00007463  00000+0  35824-3 0  9997",
      "tle_2": "2 31698  97.4454 117.4964 0001899  76.0715 284.0731 15.19148811933994"
   }
]